{
    "links": {
        "self": "http://www.neowsapp.com/rest/v1/neo/3670702?api_key=iIulBulltgU6a56xZRHN4H3l9WmuAYTsLGpBGhQ2"
    },
    "id": "3670702",
    "neo_reference_id": "3670702",
    "name": "(2014 HO190)",
    "designation": "2014 HO190",
    "nasa_jpl_url": "http://ssd.jpl.nasa.gov/sbdb.cgi?sstr=3670702",
    "absolute_magnitude_h": 24.6,
    "estimated_diameter": {
        "kilometers": {
            "estimated_diameter_min": 0.0319561887,
            "estimated_diameter_max": 0.0714562102
        },
        "meters": {
            "estimated_diameter_min": 31.9561886721,
            "estimated_diameter_max": 71.4562101727
        },
        "miles": {
            "estimated_diameter_min": 0.0198566489,
            "estimated_diameter_max": 0.0444008168
        },
        "feet": {
            "estimated_diameter_min": 104.8431420431,
            "estimated_diameter_max": 234.436392583
        }
    },
    "is_potentially_hazardous_asteroid": false,
    "close_approach_data": [
        {
            "close_approach_date": "2014-05-07",
            "close_approach_date_full": "2014-May-07 11:54",
            "epoch_date_close_approach": 1399463640000,
            "relative_velocity": {
                "kilometers_per_second": "6.3506630896",
                "kilometers_per_hour": "22862.3871224714",
                "miles_per_hour": "14205.7982650712"
            },
            "miss_distance": {
                "astronomical": "0.2499381117",
                "lunar": "97.2259254513",
                "kilometers": "37390209.142142079",
                "miles": "23233198.6231915302"
            },
            "orbiting_body": "Earth"
        }
    ],
    "orbital_data": {
        "orbit_id": "10",
        "orbit_determination_date": "2017-04-06 08:41:10",
        "first_observation_date": "2014-04-29",
        "last_observation_date": "2014-05-06",
        "data_arc_in_days": 7,
        "observations_used": 13,
        "orbit_uncertainty": "9",
        "minimum_orbit_intersection": ".249758",
        "jupiter_tisserand_invariant": "4.055",
        "epoch_osculation": "2456779.5",
        "eccentricity": ".2847146221274788",
        "semi_major_axis": "1.753604038702596",
        "inclination": "12.22911290600038",
        "ascending_node_longitude": "232.4403677094589",
        "orbital_period": "848.1950476222434",
        "perihelion_distance": "1.254327327462166",
        "perihelion_argument": "345.2162139391075",
        "aphelion_distance": "2.252880749943027",
        "perihelion_time": "2456773.552185011420",
        "mean_anomaly": "2.524435154262327",
        "mean_motion": ".424430679015626",
        "equinox": "J2000",
        "orbit_class": {
            "orbit_class_type": "AMO",
            "orbit_class_description": "Near-Earth asteroid orbits similar to that of 1221 Amor",
            "orbit_class_range": "1.017 AU < q (perihelion) < 1.3 AU"
        }
    },
    "is_sentry_object": false
}